{
    "links": {
        "self": "http://www.neowsapp.com/rest/v1/neo/3475991?api_key=iIulBulltgU6a56xZRHN4H3l9WmuAYTsLGpBGhQ2"
    },
    "id": "3475991",
    "neo_reference_id": "3475991",
    "name": "(2009 VL24)",
    "designation": "2009 VL24",
    "nasa_jpl_url": "http://ssd.jpl.nasa.gov/sbdb.cgi?sstr=3475991",
    "absolute_magnitude_h": 24.4,
    "estimated_diameter": {
        "kilometers": {
            "estimated_diameter_min": 0.0350392641,
            "estimated_diameter_max": 0.0783501764
        },
        "meters": {
            "estimated_diameter_min": 35.0392641108,
            "estimated_diameter_max": 78.3501764334
        },
        "miles": {
            "estimated_diameter_min": 0.0217723826,
            "estimated_diameter_max": 0.0486845275
        },
        "feet": {
            "estimated_diameter_min": 114.9582192654,
            "estimated_diameter_max": 257.0543928497
        }
    },
    "is_potentially_hazardous_asteroid": false,
    "close_approach_data": [
        {
            "close_approach_date": "2009-10-27",
            "close_approach_date_full": "2009-Oct-27 09:21",
            "epoch_date_close_approach": 1256635260000,
            "relative_velocity": {
                "kilometers_per_second": "14.5871536125",
                "kilometers_per_hour": "52513.7530049874",
                "miles_per_hour": "32630.0039157934"
            },
            "miss_distance": {
                "astronomical": "0.0159373721",
                "lunar": "6.1996377469",
                "kilometers": "2384196.919557427",
                "miles": "1481471.2690774126"
            },
            "orbiting_body": "Earth"
        }
    ],
    "orbital_data": {
        "orbit_id": "8",
        "orbit_determination_date": "2017-04-06 08:59:14",
        "first_observation_date": "2009-11-10",
        "last_observation_date": "2009-11-17",
        "data_arc_in_days": 7,
        "observations_used": 25,
        "orbit_uncertainty": "9",
        "minimum_orbit_intersection": ".0104105",
        "jupiter_tisserand_invariant": "3.786",
        "epoch_osculation": "2455148.5",
        "eccentricity": ".5772500990252981",
        "semi_major_axis": "1.84985820631062",
        "inclination": "1.933620531022233",
        "ascending_node_longitude": "16.99107385437643",
        "orbital_period": "918.9800588885996",
        "perihelion_distance": ".7820273735350544",
        "perihelion_argument": "312.8612640848011",
        "aphelion_distance": "2.917689039086186",
        "perihelion_time": "2455089.110626456046",
        "mean_anomaly": "23.26511252233296",
        "mean_motion": ".3917386416799712",
        "equinox": "J2000",
        "orbit_class": {
            "orbit_class_type": "APO",
            "orbit_class_description": "Near-Earth asteroid orbits which cross the Earth’s orbit similar to that of 1862 Apollo",
            "orbit_class_range": "a (semi-major axis) > 1.0 AU; q (perihelion) < 1.017 AU"
        }
    },
    "is_sentry_object": false
}